FORMOSAT 7-3            
1 44343U 19036E   26068.82630502  .00006445  00000+0  37650-3 0  9997
2 44343  23.9981 141.9797 0001061 150.4425 209.6139 15.08933962368215
STARLINK-5256           
1 54175U 22141U   26068.26709384  .00007930  00000+0  51536-3 0  9994
2 54175  53.2185   6.0286 0001682  85.0951 275.0233 15.08869984185795
